{"type": "FeatureCollection", "features": [ {"type": "Feature", "properties": {"norad_id": 66949, "name": "STARLINK-36096", "group": "last-30-days", "lat": -35.47788982558142, "lon": -142.27417537892407, "alt_km": 351.6519713505759, "timestamp": "2025-12-21T16:47:53.451681+00:00", "meta": {"OBJECT_NAME": "STARLINK-36096", "OBJECT_ID": "2025-286AA", "EPOCH": "2025-12-21T12:00:02.000160", "MEAN_MOTION": 15.7415683, "ECCENTRICITY": 0.000101, "INCLINATION": 53.1574, "RA_OF_ASC_NODE": 6.4154, "ARG_OF_PERICENTER": 85.7517, "MEAN_ANOMALY": 87.1718, "EPHEMERIS_TYPE": 0, "CLASSIFICATION_TYPE": "U", "NORAD_CAT_ID": 66949, "ELEMENT_SET_NO": 999, "REV_AT_EPOCH": 340, "BSTAR": 0.00035315, "MEAN_MOTION_DOT": 0.00051334, "MEAN_MOTION_DDOT": 0}, "tle": {"line1": "1 66949U 25286AA  25355.50002315  .00051334  00000+0  35315-3 0  9998", "line2": "2 66949  53.1574   6.4154 0001010  85.7517  87.1718 15.74156830  3405"}}, "geometry": {"type": "Point", "coordinates": [-142.27417537892407, -35.47788982558142]}}, {"type": "Feature", "properties": {"norad_id": 66950, "name": "STARLINK-36111", "group": "last-30-days", "lat": -38.01120423340352, "lon": -138.70797171426645, "alt_km": 351.70967024268975, "timestamp": "2025-12-21T16:47:53.451693+00:00", "meta": {"OBJECT_NAME": "STARLINK-36111", "OBJECT_ID": "2025-286AB", "EPOCH": "2025-12-21T12:00:02.000160", "MEAN_MOTION": 15.7420067, "ECCENTRICITY": 0.0001196, "INCLINATION": 53.1571, "RA_OF_ASC_NODE": 6.407, "ARG_OF_PERICENTER": 98.8836, "MEAN_ANOMALY": 77.8406, "EPHEMERIS_TYPE": 0, "CLASSIFICATION_TYPE": "U", "NORAD_CAT_ID": 66950, "ELEMENT_SET_NO": 999, "REV_AT_EPOCH": 340, "BSTAR": 3.1642e-05, "MEAN_MOTION_DOT": 4.009e-05, "MEAN_MOTION_DDOT": 0}, "tle": {"line1": "1 66950U 25286AB  25355.50002315  .00004009  00000+0  31642-4 0  9997", "line2": "2 66950  53.1571   6.4070 0001196  98.8836  77.8406 15.74200670  3407"}}, "geometry": {"type": "Point", "coordinates": [-138.70797171426645, -38.01120423340352]}}, {"type": "Feature", "properties": {"norad_id": 66951, "name": "STARLINK-35999", "group": "last-30-days", "lat": -39.24844524962382, "lon": -136.8125093370465, "alt_km": 351.8352663031519, "timestamp": "2025-12-21T16:47:53.451705+00:00", "meta": {"OBJECT_NAME": "STARLINK-35999", "OBJECT_ID": "2025-286AC", "EPOCH": "2025-12-21T12:00:02.000160", "MEAN_MOTION": 15.74172058, "ECCENTRICITY": 9.87e-05, "INCLINATION": 53.1571, "RA_OF_ASC_NODE": 6.403, "ARG_OF_PERICENTER": 87.2069, "MEAN_ANOMALY": 91.4728, "EPHEMERIS_TYPE": 0, "CLASSIFICATION_TYPE": "U", "NORAD_CAT_ID": 66951, "ELEMENT_SET_NO": 999, "REV_AT_EPOCH": 340, "BSTAR": 0.00019931, "MEAN_MOTION_DOT": 0.00028639, "MEAN_MOTION_DDOT": 0}, "tle": {"line1": "1 66951U 25286AC  25355.50002315  .00028639  00000+0  19931-3 0  9999", "line2": "2 66951  53.1571   6.4030 0000987  87.2069  91.4728 15.74172058  3408"}}, "geometry": {"type": "Point", "coordinates": [-136.8125093370465, -39.24844524962382]}}, {"type": "Feature", "properties": {"norad_id": 66952, "name": "STARLINK-36122", "group": "last-30-days", "lat": -36.7618856474621, "lon": -140.5150469961742, "alt_km": 351.8359744155605, "timestamp": "2025-12-21T16:47:53.451717+00:00", "meta": {"OBJECT_NAME": "STARLINK-36122", "OBJECT_ID": "2025-286AD", "EPOCH": "2025-12-21T12:00:02.000160", "MEAN_MOTION": 15.74171031, "ECCENTRICITY": 0.0001102, "INCLINATION": 53.1573, "RA_OF_ASC_NODE": 6.4112, "ARG_OF_PERICENTER": 75.7503, "MEAN_ANOMALY": 99.0879, "EPHEMERIS_TYPE": 0, "CLASSIFICATION_TYPE": "U", "NORAD_CAT_ID": 66952, "ELEMENT_SET_NO": 999, "REV_AT_EPOCH": 340, "BSTAR": 0.00019714, "MEAN_MOTION_DOT": 0.00028317, "MEAN_MOTION_DDOT": 0}, "tle": {"line1": "1 66952U 25286AD  25355.50002315  .00028317  00000+0  19714-3 0  9992", "line2": "2 66952  53.1573   6.4112 0001102  75.7503  99.0879 15.74171031  3408"}}, "geometry": {"type": "Point", "coordinates": [-140.5150469961742, -36.7618856474621]}}, {"type": "Feature", "properties": {"norad_id": 66953, "name": "HULIANWANG DIGUI-114", "group": "last-30-days", "lat": 0.7907672545119783, "lon": -17.05534784118411, "alt_km": 1023.3848107897884, "timestamp": "2025-12-21T16:47:53.451727+00:00", "meta": {"OBJECT_NAME": "HULIANWANG DIGUI-114", "OBJECT_ID": "2025-287A", "EPOCH": "2025-12-20T09:09:14.655168", "MEAN_MOTION": 13.66161866, "ECCENTRICITY": 0.00096738, "INCLINATION": 86.496, "RA_OF_ASC_NODE": 343.3747, "ARG_OF_PERICENTER": 185.0352, "MEAN_ANOMALY": 175.071, "EPHEMERIS_TYPE": 0, "CLASSIFICATION_TYPE": "U", "NORAD_CAT_ID": 66953, "ELEMENT_SET_NO": 999, "REV_AT_EPOCH": 157, "BSTAR": 3.033618e-06, "MEAN_MOTION_DOT": 1.9e-07, "MEAN_MOTION_DDOT": 0}, "tle": {"line1": "1 66953U 25287A   25354.38141962  .00000019  00000+0  30336-5 0  9995", "line2": "2 66953  86.4960 343.3747 0009673 185.0352 175.0710 13.66161866  1572"}}, "geometry": {"type": "Point", "coordinates": [-17.05534784118411, 0.7907672545119783]}}, {"type": "Feature", "properties": {"norad_id": 66954, "name": "HULIANWANG DIGUI-115", "group": "last-30-days", "lat": 8.317862627188877, "lon": -16.589588881195482, "alt_km": 1020.5207894795403, "timestamp": "2025-12-21T16:47:53.451737+00:00", "meta": {"OBJECT_NAME": "HULIANWANG DIGUI-115", "OBJECT_ID": "2025-287B", "EPOCH": "2025-12-20T14:23:56.755680", "MEAN_MOTION": 13.66603826, "ECCENTRICITY": 0.00094984, "INCLINATION": 86.4975, "RA_OF_ASC_NODE": 343.2967, "ARG_OF_PERICENTER": 182.0064, "MEAN_ANOMALY": 178.1058, "EPHEMERIS_TYPE": 0, "CLASSIFICATION_TYPE": "U", "NORAD_CAT_ID": 66954, "ELEMENT_SET_NO": 999, "REV_AT_EPOCH": 160, "BSTAR": -9.79328e-07, "MEAN_MOTION_DOT": 1.6e-07, "MEAN_MOTION_DDOT": 0}, "tle": {"line1": "1 66954U 25287B   25354.59996245  .00000016  00000+0 -97933-6 0  9996", "line2": "2 66954  86.4975 343.2967 0009498 182.0064 178.1058 13.66603826  1604"}}, "geometry": {"type": "Point", "coordinates": [-16.589588881195482, 8.317862627188877]}}, {"type": "Feature", "properties": {"norad_id": 66955, "name": "HULIANWANG DIGUI-116", "group": "last-30-days", "lat": 16.233255304683023, "lon": -16.095093133207353, "alt_km": 1016.7532921058619, "timestamp": "2025-12-21T16:47:53.451747+00:00", "meta": {"OBJECT_NAME": "HULIANWANG DIGUI-116", "OBJECT_ID": "2025-287C", "EPOCH": "2025-12-20T16:07:29.631072", "MEAN_MOTION": 13.67009251, "ECCENTRICITY": 0.00086607, "INCLINATION": 86.4918, "RA_OF_ASC_NODE": 343.2556, "ARG_OF_PERICENTER": 174.268, "MEAN_ANOMALY": 185.8579, "EPHEMERIS_TYPE": 0, "CLASSIFICATION_TYPE": "U", "NORAD_CAT_ID": 66955, "ELEMENT_SET_NO": 999, "REV_AT_EPOCH": 161, "BSTAR": 0.00012368885, "MEAN_MOTION_DOT": 1.2e-06, "MEAN_MOTION_DDOT": 0}, "tle": {"line1": "1 66955U 25287C   25354.67187073  .00000120  00000+0  12369-3 0  9999", "line2": "2 66955  86.4918 343.2556 0008660 174.2680 185.8579 13.67009251  1610"}}, "geometry": {"type": "Point", "coordinates": [-16.095093133207353, 16.233255304683023]}}, {"type": "Feature", "properties": {"norad_id": 66956, "name": "HULIANWANG DIGUI-117", "group": "last-30-days", "lat": 28.160070050699936, "lon": -15.228342255648132, "alt_km": 1010.6310554231322, "timestamp": "2025-12-21T16:47:53.451757+00:00", "meta": {"OBJECT_NAME": "HULIANWANG DIGUI-117", "OBJECT_ID": "2025-287D", "EPOCH": "2025-12-18T14:55:12.079776", "MEAN_MOTION": 13.67770338, "ECCENTRICITY": 0.00076767, "INCLINATION": 86.4971, "RA_OF_ASC_NODE": 344.0126, "ARG_OF_PERICENTER": 176.3616, "MEAN_ANOMALY": 183.76, "EPHEMERIS_TYPE": 0, "CLASSIFICATION_TYPE": "U", "NORAD_CAT_ID": 66956, "ELEMENT_SET_NO": 999, "REV_AT_EPOCH": 133, "BSTAR": 1.0922436e-05, "MEAN_MOTION_DOT": 2.6e-07, "MEAN_MOTION_DDOT": 0}, "tle": {"line1": "1 66956U 25287D   25352.62166759  .00000026  00000+0  10922-4 0  9990", "line2": "2 66956  86.4971 344.0126 0007676 176.3616 183.7600 13.67770338  1332"}}, "geometry": {"type": "Point", "coordinates": [-15.228342255648132, 28.160070050699936]}}, {"type": "Feature", "properties": {"norad_id": 66957, "name": "HULIANWANG DIGUI-118", "group": "last-30-days", "lat": 33.207827374722, "lon": -14.812900516184516, "alt_km": 1009.1051738658607, "timestamp": "2025-12-21T16:47:53.451767+00:00", "meta": {"OBJECT_NAME": "HULIANWANG DIGUI-118", "OBJECT_ID": "2025-287E", "EPOCH": "2025-12-20T16:03:25.181280", "MEAN_MOTION": 13.67845146, "ECCENTRICITY": 0.00078058, "INCLINATION": 86.4953, "RA_OF_ASC_NODE": 343.2634, "ARG_OF_PERICENTER": 167.9283, "MEAN_ANOMALY": 192.2065, "EPHEMERIS_TYPE": 0, "CLASSIFICATION_TYPE": "U", "NORAD_CAT_ID": 66957, "ELEMENT_SET_NO": 999, "REV_AT_EPOCH": 161, "BSTAR": 0.00012125742, "MEAN_MOTION_DOT": 1.19e-06, "MEAN_MOTION_DDOT": 0}, "tle": {"line1": "1 66957U 25287E   25354.66904145  .00000119  00000+0  12126-3 0  9996", "line2": "2 66957  86.4953 343.2634 0007805 167.9283 192.2065 13.67845146  1619"}}, "geometry": {"type": "Point", "coordinates": [-14.812900516184516, 33.207827374722]}}, {"type": "Feature", "properties": {"norad_id": 66958, "name": "CZ-6A R/B", "group": "last-30-days", "lat": 24.699706132639747, "lon": 161.08411040956875, "alt_km": 896.3313995755025, "timestamp": "2025-12-21T16:47:53.451779+00:00", "meta": {"OBJECT_NAME": "CZ-6A R/B", "OBJECT_ID": "2025-287F", "EPOCH": "2025-12-21T05:44:19.736448", "MEAN_MOTION": 13.94921107, "ECCENTRICITY": 0.01072566, "INCLINATION": 86.5061, "RA_OF_ASC_NODE": 342.8694, "ARG_OF_PERICENTER": 76.602, "MEAN_ANOMALY": 284.7084, "EPHEMERIS_TYPE": 0, "CLASSIFICATION_TYPE": "U", "NORAD_CAT_ID": 66958, "ELEMENT_SET_NO": 999, "REV_AT_EPOCH": 172, "BSTAR": 4.712784e-05, "MEAN_MOTION_DOT": 8.5e-07, "MEAN_MOTION_DDOT": 0}, "tle": {"line1": "1 66958U 25287F   25355.23911732  .00000085  00000+0  47128-4 0  9994", "line2": "2 66958  86.5061 342.8694 0107256  76.6020 284.7084 13.94921107  1720"}}, "geometry": {"type": "Point", "coordinates": [161.08411040956875, 24.699706132639747]}}]}